QIANFAN-41              
1 62242U 24232F   25295.95379279  .00000170  00000+0  24494-3 0  9996
2 62242  89.0032  46.3098 0012961 344.5932  15.4823 13.50980032 92396
QIANFAN-42              
1 62243U 24232G   25295.91357850  .00000880  00000+0  37425-3 0  9990
2 62243  89.0028  43.1499 0013162 246.2811 113.7001 14.24404962 94139
QIANFAN-43              
1 62244U 24232H   25295.94970324  .00000165  00000+0  23689-3 0  9994
2 62244  89.0036  46.3732 0014613 349.5003  10.5840 13.50980999 61008
QIANFAN-44              
1 62245U 24232J   25295.93728898  .00000169  00000+0  24376-3 0  9999
2 62245  89.0035  46.1860 0012765 347.2780  12.8047 13.50982194 92479
QIANFAN-45              
1 62246U 24232K   25295.90445421  .00000167  00000+0  24066-3 0  9999
2 62246  89.0039  46.3340 0013398 346.6987  13.3809 13.50978796 92390
QIANFAN-46              
1 62247U 24232L   25295.92911132  .00000162  00000+0  23289-3 0  9990
2 62247  89.0034  46.4027 0013638 352.3913   7.7029 13.50979354 92357
QIANFAN-47              
1 62248U 24232M   25295.93323168  .00000163  00000+0  23357-3 0  9995
2 62248  89.0030  46.3372 0014018 351.3194   8.7713 13.50981135 92383
QIANFAN-48              
1 62249U 24232N   25295.89628375  .00000179  00000+0  25948-3 0  9994
2 62249  89.0034  46.3408 0016342 353.2128   6.8800 13.50977196 92386
